[{"OBJECT_NAME":"STARLINK-1042","OBJECT_ID":"2019-074AL","EPOCH":"2026-03-09T09:29:26.743488","MEAN_MOTION":15.49795256,"ECCENTRICITY":0.00018597,"INCLINATION":53.0437,"RA_OF_ASC_NODE":96.2053,"ARG_OF_PERICENTER":108.4551,"MEAN_ANOMALY":251.6659,"EPHEMERIS_TYPE":0,"CLASSIFICATION_TYPE":"U","NORAD_CAT_ID":44747,"ELEMENT_SET_NO":999,"REV_AT_EPOCH":35002,"BSTAR":0.00045070979,"MEAN_MOTION_DOT":0.00025134,"MEAN_MOTION_DDOT":0},{"OBJECT_NAME":"MANDRAKE 2 ABLE","OBJECT_ID":"2021-059AE","EPOCH":"2026-03-09T11:47:46.014720","MEAN_MOTION":15.50735817,"ECCENTRICITY":0.00047846,"INCLINATION":97.704,"RA_OF_ASC_NODE":250.976,"ARG_OF_PERICENTER":6.4336,"MEAN_ANOMALY":353.6976,"EPHEMERIS_TYPE":0,"CLASSIFICATION_TYPE":"U","NORAD_CAT_ID":48907,"ELEMENT_SET_NO":999,"REV_AT_EPOCH":26165,"BSTAR":0.00043383769,"MEAN_MOTION_DOT":0.00024904,"MEAN_MOTION_DDOT":0}]
