STARLINK-1042           
1 44747U 19074AL  26068.39544842  .00025134  00000+0  45071-3 0  9992
2 44747  53.0437  96.2053 0001859 108.4551 251.6659 15.49795256350029
MANDRAKE 2 ABLE         
1 48907U 21059AE  26068.49150480  .00024904  00000+0  43384-3 0  9991
2 48907  97.7040 250.9760 0004784   6.4336 353.6976 15.50735817261652
